BEESAT-4                
1 41619U 16040W   21286.11012641  .00007130  00000-0  27774-3 0  9998
2 41619  97.2563 338.8671 0008654 275.6109  84.4143 15.26240223282951
CAS-2T & KS-1Q          
1 41847U 16066G   21286.46619136  .00000361  00000-0  65272-4 0  9994
2 41847  98.5882 346.0117 0364244 227.9404 129.0264 14.38251369258842
NAYIF-1 (EO-88)         
1 42017U 17008BX  21286.13495315  .00008648  00000-0  30946-3 0  9991
2 42017  97.3039 351.6077 0007143  60.8462 299.3492 15.28995803259236
ZHUHAI-1 02 (CAS-4B)    
1 42759U 17034B   21286.42230076  .00001214  00000-0  85744-4 0  9995
2 42759  43.0174 252.4374 0007570 190.3080 316.3045 15.10436681238982
ZHUHAI-1 01 (CAS-4A)    
1 42761U 17034D   21286.40489983  .00001231  00000-0  86586-4 0  9993
2 42761  43.0179 251.5043 0008549 193.2505 305.0736 15.10523829238987
MAX VALIER SAT          
1 42778U 17036P   21285.51928687  .00004055  00000-0  16955-3 0  9992
2 42778  97.2426 330.2423 0013325 119.8805 240.3759 15.24070524239119
RADFXSAT (FOX-1B)       
1 43017U 17073E   21286.26992277  .00002229  00000-0  17691-3 0  9998
2 43017  97.6929 185.5225 0252457 275.9580  81.2915 14.79842570210543
FOX-1D (AO-92)          
1 43137U 18004AC  21286.46890110  .00004914  00000-0  19492-3 0  9995
2 43137  97.3967 359.2676 0009553 146.7152 213.4689 15.25797319208649
DIWATA-2B               
1 43678U 18084H   21286.37212096  .00000129  00000-0  18564-4 0  9998
2 43678  97.9391  52.3647 0010562  28.6512 331.5290 14.91803345161013
ES'HAIL 2               
1 43700U 18090A   21285.84610986  .00000130  00000-0  00000-0 0  9996
2 43700   0.0177 178.1662 0002249  44.1835 129.6740  1.00271598 10546
FOX-1CLIFF (AO-95)      
1 43770U 18099N   21286.15117579  .00001177  00000-0  11130-3 0  9998
2 43770  97.6542 353.6795 0015137  29.9526 330.2558 14.95473427156042
ITASAT 1                
1 43786U 18099AE  21286.44933938  .00000614  00000-0  60074-4 0  9999
2 43786  97.6560 354.7309 0015468  21.1894 338.9964 14.95745052156122
JY1SAT (JO-97)          
1 43803U 18099AX  21285.45631311  .00001080  00000-0  10115-3 0  9997
2 43803  97.6520 353.5008 0015378  24.2956 335.8987 14.96019360155985
UWE-4                   
1 43880U 18111E   21285.96285927  .00001868  00000-0  16694-3 0  9993
2 43880  97.6771 191.6362 0013973  72.6540 287.6209 14.97036526150662
NEXUS (FO-99)           
1 43937U 19003F   21286.41673835  .00005502  00000-0  21278-3 0  9990
2 43937  97.1653 324.8387 0021363 317.2896  42.6682 15.26398294152257
PSAT2 (NO-104)          
1 44354U 19036R   21285.46089751  .00039950  00000-0  50644-3 0  9995
2 44354  28.5260  64.6824 0310208 108.2283 255.2326 15.17582488126747
BRICSAT2 (NO-103)       
1 44355U 19036S   21286.47582125  .00095619 -44447-5  89127-3 0  9992
2 44355  28.5279 350.6509 0226588 228.5320 129.5618 15.39685473127561
JAISAT-1                
1 44419U 19038F   21286.41761708  .00003350  00000-0  18637-3 0  9995
2 44419  97.6028 250.7978 0019006 265.4352  94.4709 15.14223480125648
DUCHIFAT-3              
1 44854U 19089C   21286.24969226  .00001147  00000-0  97512-4 0  9992
2 44854  36.9667 123.9240 0008989   5.5940 354.4921 14.99687948100792
CAS-6 (TO-108)          
1 44881U 19093C   21286.46245743  .00000193  00000-0  31414-4 0  9991
2 44881  97.9164   3.9626 0013692 269.9218  90.0430 14.81491438 98205
RS-44 & BREEZE-KM R/B   
1 44909U 19096E   21285.43157197  .00000021  00000-0  37050-4 0  9998
2 44909  82.5256  35.0730 0217597 179.3657 180.7763 12.79711244 83789
ORBITAL FACTORY 2 (OF-2)
1 45113U 19071C   21286.14775336  .00011926  00000-0  33456-3 0  9990
2 45113  51.6400 186.4427 0011140   3.5856 356.5206 15.36942155 95268
HUSKYSAT-1 (HO-107)     
1 45119U 19071J   21286.09492457  .00010517  00000-0  29704-3 0  9996
2 45119  51.6398 186.0808 0010630   0.1209 359.9775 15.36875941 95252
BY70-2                  
1 45857U 20042B   21286.43960813  .00002226  00000-0  31989-3 0  9995
2 45857  97.9775   0.9487 0011269 186.1242 173.9838 14.77387324 68960
SALSAT                  
1 46495U 20068K   21285.92588166  .00000148  00000-0  15361-4 0  9990
2 46495  97.6997 222.7690 0018228  37.7055 322.5448 15.03579758 56989
BY70-3                  
1 46839U 20079N   21286.50785418  .00007443  00000-0  22330-3 0  9996
2 46839  97.2301 358.0272 0008304 133.9876 322.5480 15.34714223 52309
RADFXSAT-2 (AO-109)     
1 47311U 21002C   21286.35482347  .00004156  00000-0  18788-3 0  9997
2 47311  60.6852 209.6949 0040216 107.9760 252.5716 15.22146616 40823
UVSQ-SAT                
1 47438U 21006AB  21286.08130650  .00002733  00000-0  15615-3 0  9993
2 47438  97.4745 345.1401 0013900  56.6047 303.6512 15.13469520 39843
DIY-1 (ARDUIQUBE)       
1 47963U 21022AH  21285.97744003  .00007593  00000-0  49608-3 0  9992
2 47963  97.5457 186.2028 0017285 263.8967  96.0291 15.07977864 29607
